ONEWEB-0136             
1 47282U 20100AA  25085.52691812  .00000076  00000+0  17543-3 0  9995
2 47282  87.8809  79.7262 0001729  72.2670 287.8647 13.12441056205940
ONEWEB-0137             
1 47283U 20100AB  25085.48474565 -.00000049  00000+0 -17130-3 0  9999
2 47283  87.8807  79.7460 0001763  91.4805 268.6526 13.12443941205847
ONEWEB-0138             
1 47284U 20100AC  25085.46365177 -.00000345  00000+0 -99444-3 0  9993
2 47284  87.8808  79.7621 0001835  85.2738 274.8600 13.12441129205921
ONEWEB-0139             
1 47285U 20100AD  25085.50274581  .00000460  00000+0  12438-2 0  9990
2 47285  87.8811  79.7402 0001895  87.0803 273.0542 13.12443936206006
ONEWEB-0140             
1 47286U 20100AE  25085.45717042 -.00000138  00000+0 -41924-3 0  9996
2 47286  87.8806  79.7400 0001862  83.6158 276.5182 13.12441479205960
ONEWEB-0141             
1 47287U 20100AF  25085.42621638  .00000536  00000+0  14541-2 0  9993
2 47287  87.8805  79.7621 0001723  97.1924 262.9400 13.12450864205940
ONEWEB-0142             
1 47288U 20100AG  25085.48183263 -.00000218  00000+0 -65629-3 0  9990
2 47288  87.8817  79.7377 0001610  88.4538 271.6774 13.10885241205941
ONEWEB-0143             
1 47289U 20100AH  25085.42472993  .00000508  00000+0  13758-2 0  9991
2 47289  87.8806  79.7668 0001915  87.6174 272.5174 13.12442114205919
